[{"OBJECT_NAME":"STARLINK-5730","OBJECT_ID":"2023-020AU","EPOCH":"2026-03-09T02:55:45.182208","MEAN_MOTION":15.02553555,"ECCENTRICITY":0.00012227,"INCLINATION":43.0058,"RA_OF_ASC_NODE":354.7744,"ARG_OF_PERICENTER":274.9357,"MEAN_ANOMALY":85.1346,"EPHEMERIS_TYPE":0,"CLASSIFICATION_TYPE":"U","NORAD_CAT_ID":55611,"ELEMENT_SET_NO":999,"REV_AT_EPOCH":16898,"BSTAR":-0.00043726798,"MEAN_MOTION_DOT":-6.108e-5,"MEAN_MOTION_DDOT":0},{"OBJECT_NAME":"CZ-6A DEB","OBJECT_ID":"2022-151PZ","EPOCH":"2026-03-09T15:54:05.043168","MEAN_MOTION":14.93335269,"ECCENTRICITY":0.00656982,"INCLINATION":98.627,"RA_OF_ASC_NODE":159.0323,"ARG_OF_PERICENTER":132.4095,"MEAN_ANOMALY":228.2707,"EPHEMERIS_TYPE":0,"CLASSIFICATION_TYPE":"U","NORAD_CAT_ID":54888,"ELEMENT_SET_NO":999,"REV_AT_EPOCH":17691,"BSTAR":0.0034425771,"MEAN_MOTION_DOT":0.00037754,"MEAN_MOTION_DDOT":0}]
